STARLINK-30362          
1 57745U 23131P   25012.07621259 -.00016577  00000+0 -12129-2 0  9994
2 57745  43.0032 302.6301 0001264 282.7400  77.3301 15.02598829 76286
STARLINK-30350          
1 57746U 23131Q   25012.17268574 -.00000886  00000+0 -50507-4 0  9993
2 57746  43.0025 302.4759 0001124 275.7802  84.2912 15.02533563 76501
STARLINK-30307          
1 57747U 23131R   25011.21313311  .00003844  00000+0  29955-3 0  9995
2 57747  43.0028 307.3343 0001044 268.1174  91.9549 15.02526969 76375
STARLINK-30356          
1 57748U 23131S   25011.93662372 -.00000134  00000+0  51321-5 0  9993
2 57748  43.0056 303.3003 0001224 271.8293  88.2409 15.02537203 76376
STARLINK-30366          
1 57749U 23131T   25011.78368914  .00001026  00000+0  91012-4 0  9992
2 57749  43.0025 303.8744 0001221 278.5499  81.5205 15.02535961 76468
STARLINK-30357          
1 57750U 23131U   25011.99311351  .00000561  00000+0  56567-4 0  9999
2 57750  43.0016 302.8643 0001176 280.8387  79.2323 15.02535067 76381
STARLINK-30370          
1 57751U 23131V   25012.16521033 -.00000360  00000+0 -11566-4 0  9999
2 57751  43.0019 289.7005 0001126 276.4827  83.5887 15.02537449 76553
STARLINK-30368          
1 57752U 23131W   25012.15268193  .00008529  00000+0  64517-3 0  9990
2 57752  43.0030 302.3119 0001443 282.1373  77.9308 15.02566830 76503
STARLINK-30343          
1 57753U 23131X   25011.79701134  .00001480  00000+0  12459-3 0  9994
2 57753  43.0018 303.9734 0000817 255.8891 104.1861 15.02544709 76469
STARLINK-30397          
1 57771U 23134A   25011.60043059 -.00001501  00000+0 -96068-4 0  9997
2 57771  43.0021 331.4069 0001187 285.0141  75.0570 15.02535937 75975
STARLINK-30354          
1 57772U 23134B   25011.34772703  .00000378  00000+0  43090-4 0  9990
2 57772  43.0045 332.0914 0001139 263.5961  96.4752 15.02528540 75944
STARLINK-30383          
1 57773U 23134C   25011.86301141  .00002322  00000+0  18690-3 0  9990
2 57773  43.0033 329.9344 0001215 261.0189  99.0516 15.02540577 76014
STARLINK-30384          
1 57774U 23134D   25011.98931946 -.00001208  00000+0 -74413-4 0  9996
2 57774  42.9997 329.1645 0000254 320.9228  39.1596 15.02531019 75797
STARLINK-30305          
1 57775U 23134E   25011.59377292  .00000673  00000+0  64848-4 0  9996
2 57775  43.0023 331.3569 0001120 274.3576  85.7138 15.02536648 75973
STARLINK-30360          
1 57776U 23134F   25011.98597783 -.00005176  00000+0 -36831-3 0  9994
2 57776  43.0031 329.1385 0001298 275.7836  84.2859 15.02540868 75876
STARLINK-30355          
1 57777U 23134G   25011.58044592  .00004055  00000+0  31508-3 0  9995
2 57777  43.0054 331.2271 0001683 266.0315  94.0335 15.02536127 75964
STARLINK-30385          
1 57778U 23134H   25011.93309724  .00002001  00000+0  16317-3 0  9996
2 57778  43.0013 316.7503 0001148 269.1737  90.8973 15.02538787 76017
STARLINK-30359          
1 57779U 23134J   25012.12588188  .00001195  00000+0  10353-3 0  9999
2 57779  43.0022 315.6500 0000761 281.5952  78.4805 15.02533093 76033
STARLINK-30380          
1 57780U 23134K   25011.15494855  .00001206  00000+0  10431-3 0  9990
2 57780  43.0029 333.2179 0001194 275.4512  84.6194 15.02533367 75915
STARLINK-30369          
1 57781U 23134L   25011.57712094  .00000243  00000+0  33085-4 0  9996
2 57781  43.0026 331.2189 0001112 258.3177 101.7540 15.02535827 75974
STARLINK-30376          
1 57782U 23134M   25011.35771183 -.00002336  00000+0 -15782-3 0  9997
2 57782  43.0029 332.1646 0001555 240.3858 119.6830 15.02550569 75941
STARLINK-30389          
1 57783U 23134N   25011.96933092  .00001239  00000+0  10681-3 0  9996
2 57783  43.0032 329.0136 0001298 268.3849  91.6844 15.02533722 75798
STARLINK-30388          
1 57784U 23134P   25011.56711787  .00001112  00000+0  97349-4 0  9995
2 57784  43.0047 331.1551 0001192 267.1625  92.9081 15.02551459 75976
STARLINK-30381          
1 57785U 23134Q   25011.61028431  .00000461  00000+0  49164-4 0  9997
2 57785  43.0044 330.5259 0001632 251.2515 108.8150 15.02541533 75980
STARLINK-30382          
1 57786U 23134R   25011.56379935  .00001513  00000+0  12707-3 0  9991
2 57786  43.0039 331.1319 0001487 274.8548  85.2124 15.02539156 75970
STARLINK-30378          
1 57787U 23134S   25011.93936730  .00000668  00000+0  64554-4 0  9993
2 57787  43.0025 328.7881 0000962 270.3658  89.7074 15.02529245 76031
STARLINK-30387          
1 57788U 23134T   25011.92965679  .00006263  00000+0  47827-3 0  9997
2 57788  43.0026 315.9109 0001186 271.1603  88.9104 15.02534838 76187
STARLINK-30372          
1 57789U 23134U   25012.15249971  .00070385  00000+0  22121-2 0  9999
2 57789  42.9988 309.0433 0005686 200.3216 159.7412 15.32082139 76285
STARLINK-30373          
1 57790U 23134V   25012.00213555 -.00005803  00000+0 -21223-3 0  9992
2 57790  43.0021 322.4359 0001653 256.4958 103.5709 15.25899022 76115
STARLINK-30367          
1 57791U 23134W   25011.94935143  .00000861  00000+0  78808-4 0  9998
2 57791  43.0022 328.8616 0001207 266.4293  93.6412 15.02536325 75883
STARLINK-30304          
1 57808U 23138A   25011.18628659 -.00000876  00000+0 -13712-4 0  9999
2 57808  43.0010 296.2498 0001269 253.1413 106.9304 15.40694363 75988
STARLINK-30374          
1 57809U 23138B   25012.03170228  .00000307  00000+0  37775-4 0  9991
2 57809  43.0039   7.5990 0001068 270.0833  89.9887 15.02538370 75283
STARLINK-30394          
1 57810U 23138C   25012.02837167 -.00001894  00000+0 -12511-3 0  9998
2 57810  43.0028   7.5723 0000516 198.3536 161.7287 15.02549404 75188
STARLINK-30379          
1 57811U 23138D   25011.91667824  .00039340  00000+0  29124-2 0  9999
2 57811  43.0034   8.1351 0001309 260.6410 232.6015 15.02517077  5737
STARLINK-30395          
1 57812U 23138E   25011.68932431  .00000121  00000+0  24012-4 0  9991
2 57812  43.0045   9.3271 0001024 274.1806  85.8919 15.02535768 75237
STARLINK-30403          
1 57813U 23138F   25011.88542842  .00000833  00000+0  76754-4 0  9997
2 57813  43.0038   8.2201 0001211 269.4769  90.5934 15.02534614 75165
STARLINK-30413          
1 57814U 23138G   25011.66601316 -.00000092  00000+0  82350-5 0  9994
2 57814  43.0044   9.1563 0001147 270.1872  89.8839 15.02538829 75231
STARLINK-30398          
1 57815U 23138H   25011.68266660  .00000092  00000+0  21890-4 0  9996
2 57815  43.0054   9.2769 0000598 179.8129 180.2714 15.02534144 75134
STARLINK-30386          
1 57816U 23138J   25011.47989912  .00001168  00000+0  10149-3 0  9995
2 57816  43.0031  10.3365 0001146 260.5277  99.5436 15.02538029 74922
STARLINK-30391          
1 57817U 23138K   25012.00840990  .00002947  00000+0  23324-3 0  9993
2 57817  43.0070   7.4215 0000634 269.5011  90.5758 15.02519736 75274
STARLINK-30401          
1 57818U 23138L   25011.67266879 -.00009231  00000+0 -66853-3 0  9993
2 57818  43.0033   9.2027 0000381 325.2209  34.8608 15.02572703 75136
STARLINK-30390          
1 57819U 23138M   25011.66934187  .00000277  00000+0  35579-4 0  9998
2 57819  43.0048   9.1774 0001289 268.6697  91.3998 15.02537581 75179
STARLINK-30409          
1 57820U 23138N   25012.05489905 -.00000628  00000+0 -31397-4 0  9993
2 57820  43.0055   6.8894 0001632 257.1683 102.8977 15.02525781 75237
STARLINK-30415          
1 57821U 23138P   25011.99285585 -.00000555  00000+0 -26041-4 0  9993
2 57821  43.0065   7.3047 0001656 259.6640 100.4015 15.02534540 75275
STARLINK-30407          
1 57823U 23138R   25011.63586163 -.00000721  00000+0 -17741-4 0  9994
2 57823  43.0035 351.9043 0001009 285.2189  74.8550 15.25903609 75429
STARLINK-30408          
1 57824U 23138S   25011.99174579  .00000097  00000+0  22280-4 0  9996
2 57824  43.0059   7.2953 0001388 259.5940 100.4746 15.02533448 75277
STARLINK-30377          
1 57825U 23138T   25012.04157928 -.00000549  00000+0 -25560-4 0  9991
2 57825  43.0030   6.8094 0001158 244.4892 115.5831 15.02529746 75180
STARLINK-30422          
1 57826U 23138U   25011.71251613  .00001032  00000+0  91460-4 0  9999
2 57826  43.0036   8.6404 0001045 274.1306  85.9417 15.02530416 75239
STARLINK-30402          
1 57827U 23138V   25011.71695512  .00001031  00000+0  91362-4 0  9990
2 57827  43.0060   8.6748 0001012 271.4653  88.6074 15.02530263 75236
STARLINK-30411          
1 57828U 23138W   25011.38678285  .00001431  00000+0  12097-3 0  9993
2 57828  43.0066  10.4764 0001499 276.5513  83.5159 15.02534571 75124
STARLINK-30418          
1 57829U 23138X   25011.70585639 -.00002753  00000+0 -18875-3 0  9990
2 57829  43.0066   8.5899 0001321 268.0512  92.0179 15.02544449 75077
STARLINK-30285          
1 57840U 23141A   25011.46880390 -.00001195  00000+0 -28239-4 0  9997
2 57840  53.1591  85.3223 0001082  94.4480 265.6645 15.30191319 75686
STARLINK-30410          
1 57841U 23141B   25011.48144597 -.00000285  00000+0  24878-5 0  9996
2 57841  53.1601  85.2154 0001287  96.6072 263.5075 15.30174643 75684
STARLINK-30435          
1 57842U 23141C   25011.48461704 -.00000748  00000+0 -13137-4 0  9999
2 57842  53.1604  85.2672 0001323  93.4775 266.6377 15.30179350 75688
STARLINK-30423          
1 57843U 23141D   25011.68475831  .00000645  00000+0  33895-4 0  9995
2 57843  53.1596  84.3357 0001130  92.5121 267.6009 15.30202526 75719
STARLINK-30292          
1 57844U 23141E   25011.90174919 -.00000313  00000+0  15385-5 0  9992
2 57844  53.1602  83.0619 0000816 107.8032 252.3058 15.30184186 75756
STARLINK-30419          
1 57845U 23141F   25011.91667824  .00447183  00000+0  50542-2 0  9996
2 57845  53.1600  61.9187 0001103  70.9077  69.7820 15.60456268  5913
STARLINK-30416          
1 57847U 23141H   25012.19359434  .00001267  00000+0  54930-4 0  9990
2 57847  53.1602  81.9920 0001256  87.1917 272.9228 15.30186896 75793
STARLINK-30426          
1 57848U 23141J   25011.88388267  .00000516  00000+0  29572-4 0  9992
2 57848  53.1611  83.4161 0001734 132.4735 227.6413 15.30172632 75742
